OPS 6582 (TRANSIT 5B-5) 
1 00965U 64083D   24221.95622918  .00000104  00000+0  13253-3 0  9995
2 00965  90.0463 198.5489 0043423  97.9300 316.3964 13.56894847951767
LES-1                   
1 01002U 65008C   24221.92881035  .00000001  00000+0 -98271-3 0  9990
2 01002  32.1381 209.1030 0014404 346.9748  13.0376  9.88354379149181
SOLRAD 7B               
1 01291U 65016D   24220.46729192  .00000063  00000+0  85601-4 0  9993
2 01291  70.0765 239.0890 0023671 289.9637  69.8919 13.94803027 22052
SECOR 4 (EGRS 4)        
1 01315U 65027B   24221.83543796 -.00000026  00000+0 -12274-3 0  9994
2 01315  90.2438   0.4568 0031579 165.9921 325.4876 12.92643839799411
TIROS 10                
1 01430U 65051A   24221.94508238  .00000549  00000+0  18161-3 0  9992
2 01430  98.4419 336.0589 0054921 314.1022  45.5654 14.40979568 98350
ALOUETTE 2              
1 01804U 65098A   24221.82639265  .00000984  00000+0  32038-3 0  9992
2 01804  79.8014 132.4236 1335450 164.8640 199.6857 12.27130020596143
OV3-3                   
1 02389U 66070A   24221.89535866  .00020382  00000+0  10056-2 0  9990
2 02389  81.3332 198.8638 1116909  87.6620 285.1682 13.21068958508595
SECOR 7 (EGRS 7)        
1 02411U 66077B   24220.08689008  .00000018  00000+0  81096-2 0  9997
2 02411  90.3272 269.5250 0014502  26.6596 333.4999  8.59615656819029
ERS 15                  
1 02412U 66077C   24221.05936002  .00000002  00000+0  00000+0 0  9991
2 02412  90.3279 269.3342 0008770  33.1581 326.9819  8.59077387332227
ISIS 1                  
1 03669U 69009A   24221.93422181  .00000209  00000+0  13977-3 0  9999
2 03669  88.4365 218.3760 1709499 175.2407 186.7541 11.29940401283266
SECOR 13 (EGRS 13)      
1 03891U 69037B   24221.95077647 -.00000003  00000+0  68452-4 0  9994
2 03891  99.7451 108.5017 0040238 111.1941 259.3858 13.42931088710855
ATS 5                   
1 04068U 69069A   24221.65315646  .00000073  00000+0  00000+0 0  9993
2 04068   1.6972 266.9335 0003648 346.1214 182.4859  0.99488414 39580
OPS 7613 (P/L 4)        
1 04237U 69082E   24221.94900344  .00000145  00000+0  14466-3 0  9998
2 04237  70.0150 110.4427 0022965 290.8611 152.4424 13.95784351791792
OPS 7613 (P/L 1)        
1 04256U 69082B   24221.81529116  .00000401  00000+0  31443-3 0  9998
2 04256  70.0120 339.8236 0021321 236.4991 123.4080 13.98817947795721
SHINSEI (MS-F2)         
1 05485U 71080A   24221.93182645  .00000037  00000+0  78334-5 0  9996
2 05485  32.0562 153.5276 0640418 241.1906 112.2926 12.74198668462835
PROSPERO (BLACK ARROW)  
1 05580U 71093A   24221.95610248  .00007886  00000+0  17352-2 0  9992
2 05580  82.0426 164.0416 0514966   5.5569 355.1010 13.98234260653743
OPS 7898 (P/L 2)        
1 05680U 71110C   24221.69517940  .00000053  00000+0  10880-3 0  9998
2 05680  69.9919 320.9663 0010246 292.8451  67.1561 13.74651082256317
NOAA 2 (ITOS-D)         
1 06235U 72082A   24221.93168363 -.00000034  00000+0  80169-4 0  9990
2 06235 102.0176 221.5144 0004300  26.2435  39.2856 12.53183628370117
OSCAR 7 (AO-7)          
1 07530U 74089B   24221.89456543 -.00000038  00000+0  54723-4 0  9994
2 07530 101.9812 217.0408 0012179 345.7544  74.4105 12.53677692275882
TIROS N                 
1 11060U 78096A   24221.95703380  .00000507  00000+0  26375-3 0  9991
2 11060  98.5292 260.3726 0011283  48.3783 311.8358 14.18870964582696
PHASE 3B (AO-10)        
1 14129U 83058B   24217.46720250 -.00000235  00000+0  00000+0 0  9992
2 14129  27.4083 331.4452 6032739 290.1295  17.0883  2.05870207281440
HILAT                   
1 14154U 83063A   24221.94726039  .00001062  00000+0  34566-3 0  9991
2 14154  82.0221  70.2975 0039811 180.2624 296.9700 14.37610047150234
UOSAT 2 (UO-11)         
1 14781U 84021B   24221.91794266  .00003969  00000+0  44875-3 0  9998
2 14781  97.7088 189.6264 0006332 260.8690  99.1810 14.87011000156320
NOAA 9                  
1 15427U 84123A   24221.93265221  .00000420  00000+0  23368-3 0  9998
2 15427  99.1203 220.6681 0015765 106.0619 311.5210 14.16638347 47510
GEOSAT                  
1 15595U 85021A   24221.95072533  .00000657  00000+0  25580-3 0  9996
2 15595 108.0549 112.1742 0001486 256.5415 103.5561 14.39086526 65308
EUTELSAT 1-F4 (ECS 4)   
1 18351U 87078B   24221.56546022 -.00000035  00000+0  00000+0 0  9996
2 18351  14.3133 346.9060 0007779  52.0020 336.7673  0.98688705120056
AKEBONO (EXOS-D)        
1 19822U 89016A   24221.77620328  .00305157  15324-4  15728-2 0  9997
2 19822  74.9201 114.0049 0611658 108.2532 258.6178 14.70465883234084
PACSAT (AO-16)          
1 20439U 90005D   24221.96452069  .00000531  00000+0  20915-3 0  9992
2 20439  98.9009 228.5705 0011674  60.6447 356.4469 14.33434655804894
LUSAT (LO-19)           
1 20442U 90005G   24221.91925348  .00000579  00000+0  22578-3 0  9995
2 20442  98.8855 213.5814 0012331  36.0166 324.1846 14.33596152805339
IRS-1B                  
1 21688U 91061A   24221.89902528  .00000427  00000+0  33465-3 0  9992
2 21688  99.3689 203.0561 0025382  45.9356  16.4994 13.97645625573871
COSMOS 2197             
1 22034U 92042A   24221.73537035  .00000037  00000+0  14153-3 0  9998
2 22034  82.5957 301.8268 0012655  21.4514  96.8097 12.64217935479978
PEGASUS R/B             
1 22491U 93009C   24221.50419652  .00002425  00000+0  49326-3 0  9991
2 22491  24.9789  28.8582 0045981   7.8040 352.3179 14.55652583670689
EYESAT A (AO-27)        
1 22825U 93061C   24221.71610892  .00000382  00000+0  16404-3 0  9993
2 22825  98.7849 275.0306 0007322 287.4317  72.6064 14.30538388610123
ITAMSAT (IO-26)         
1 22826U 93061D   24221.89036193  .00000424  00000+0  17883-3 0  9998
2 22826  98.7796 275.0720 0007808 269.4395  90.5892 14.30924291610434
RADIO ROSTO (RS-15)     
1 23439U 94085A   24221.88427054 -.00000043  00000+0 -25242-4 0  9993
2 23439  64.8197 318.5496 0148807 133.8430 227.4904 11.27577774219530
JAS-2 (FO-29)           
1 24278U 96046B   24221.76438628  .00000098  00000+0  13315-3 0  9995
2 24278  98.5793 149.5242 0351010  52.1727 311.0640 13.53196800381549
FORTE                   
1 24920U 97047A   24221.94463809  .00000728  00000+0  32058-3 0  9995
2 24920  69.9533 103.0558 0020087 125.0033 235.2978 14.27208824402029
NOAA 15                 
1 25338U 98030A   24221.90830236  .00000560  00000+0  24943-3 0  9998
2 25338  98.5668 247.9304 0010666 164.4661 195.6849 14.26652271364709
TECHSAT 1B (GO-32)      
1 25397U 98043D   24221.86266433  .00000324  00000+0  16080-3 0  9995
2 25397  98.9258 189.3834 0001846  43.8290 316.3035 14.24083658354914
ISS (ZARYA)             
1 25544U 98067A   24222.02731685  .00017943  00000+0  32389-3 0  9995
2 25544  51.6399  53.5560 0005836 176.5883 286.7925 15.49790446466744
ORSTED                  
1 25635U 99008B   24221.90822570  .00001591  00000+0  37278-3 0  9996
2 25635  96.4667 274.5961 0134444 197.2333 162.4280 14.50070957343745
LANDSAT 7               
1 25682U 99020A   24221.96523692  .00001349  00000+0  28528-3 0  9990
2 25682  97.8860 246.2604 0001546 105.6444 317.3467 14.60802524346845
ORBCOMM FM36            
1 25984U 99065E   24221.89050258  .00003667  00000+0  12985-2 0  9993
2 25984  45.0390 128.7997 0002370 159.4960 200.5984 14.35992168289498
DMSP 5D-3 F15 (USA 147) 
1 25991U 99067A   24221.95919133  .00000533  00000+0  28755-3 0  9998
2 25991  99.0647 238.4101 0010838 123.6188 294.3986 14.17062637274710
OPAL (OO-38)            
1 26063U 00004C   24221.92289494  .00000699  00000+0  25167-3 0  9996
2 26063 100.2212  21.8033 0036514 147.1336 213.2126 14.37405630285968
IMAGE                   
1 26113U 00017A   24219.18923382 -.00000026  00000+0  97480-2 0  9993
2 26113  94.1489 304.3731 7558788   9.9068 359.1604  1.68650248150038
CLUSTER II-FM7 (SAMBA)  
1 26410U 00041A   24223.60974287  .00000903  00000+0  00000+0 0  9994
2 26410 139.9307 359.8032 7626662 214.8328 359.4521  0.44206136 17294
CLUSTER II-FM6 (SALSA)  
1 26411U 00041B   24223.49796971  .00008324  00000+0  00000+0 0  9999
2 26411 149.6138  34.3948 9095604 250.4731 359.4633  0.44243899 28358
CLUSTER II-FM5 (RUMBA)  
1 26463U 00045A   24223.80345902  .00004626  00000+0  00000+0 0  9990
2 26463 151.5469  25.3349 8672029 241.0989 359.4802  0.42871609 17227
CLUSTER II-FM8 (TANGO)  
1 26464U 00045B   24223.60980620  .00000904  00000+0  00000+0 0  9996
2 26464 139.9525 359.8142 7625591 214.8556 359.4256  0.44220277 17309
MEGSAT-1                
1 26546U 00057B   24221.94428600  .00006886  00000+0  59725-3 0  9997
2 26546  64.5531  68.4311 0020819 228.9961 130.9353 14.97648778295921
PHASE 3D (AO-40)        
1 26609U 00072B   24220.52146396 -.00000038  00000+0  00000+0 0  9998
2 26609   6.7257  91.4510 7977560 326.8328   2.4818  1.25589776108984
ODIN                    
1 26702U 01007A   24221.94240573  .00020903  00000+0  84929-3 0  9998
2 26702  97.4779 236.9627 0010196  95.5908 264.6492 15.24543838284932
OMNI-M1                 
1 26857U 01026A   24211.27633946 -.00000048  00000+0  00000+0 0  9998
2 26857  44.9743  43.3995 0013375 237.0430 122.8742  3.92402388178575
PCSAT (NO-44)           
1 26931U 01043C   24221.40595660  .00000677  00000+0  28668-3 0  9997
2 26931  67.0494 196.6415 0007786 273.2158  86.8053 14.31300270193588
PROBA-1                 
1 26958U 01049B   24221.91441564  .00004837  00000+0  36477-3 0  9990
2 26958  97.9152 199.5104 0058053 244.6729 114.8474 15.01606312241741
SPOT 5                  
1 27421U 02021A   24221.72527640  .00001343  00000+0  29861-3 0  9994
2 27421  98.0847 276.3111 0131544 219.3231 139.8358 14.53403740164384
FENGYUN 1D              
1 27431U 02024B   24221.74948897  .00000242  00000+0  16279-3 0  9997
2 27431  99.0512 260.6206 0015138 350.0757  10.0112 14.10006467144005
SAUDISAT 1C (SO-50)     
1 27607U 02058C   24221.93648648  .00003825  00000+0  52851-3 0  9997
2 27607  64.5549  59.3763 0025478  83.9977 276.4029 14.79291036164125
